[{"OBJECT_NAME":"IRIDIUM 122","OBJECT_ID":"2017-061C","EPOCH":"2026-03-09T22:07:58.507680","MEAN_MOTION":14.34217131,"ECCENTRICITY":0.00019893,"INCLINATION":86.3911,"RA_OF_ASC_NODE":66.6833,"ARG_OF_PERICENTER":88.1776,"MEAN_ANOMALY":271.9648,"EPHEMERIS_TYPE":0,"CLASSIFICATION_TYPE":"U","NORAD_CAT_ID":42957,"ELEMENT_SET_NO":999,"REV_AT_EPOCH":44055,"BSTAR":-1.2173426e-5,"MEAN_MOTION_DOT":-1.4e-7,"MEAN_MOTION_DDOT":0},{"OBJECT_NAME":"FENGYUN 1C DEB","OBJECT_ID":"1999-025AFE","EPOCH":"2026-03-09T20:48:50.791392","MEAN_MOTION":14.38132425,"ECCENTRICITY":0.00278182,"INCLINATION":98.8535,"RA_OF_ASC_NODE":23.5047,"ARG_OF_PERICENTER":76.0232,"MEAN_ANOMALY":284.4044,"EPHEMERIS_TYPE":0,"CLASSIFICATION_TYPE":"U","NORAD_CAT_ID":30443,"ELEMENT_SET_NO":999,"REV_AT_EPOCH":98685,"BSTAR":0.0025082384,"MEAN_MOTION_DOT":7.602e-5,"MEAN_MOTION_DDOT":0}]
